{"type": "FeatureCollection", "features": [ {"type": "Feature", "properties": {"norad_id": 41785, "name": "ALSAT 1B", "group": "resource", "lat": 64.39770176508723, "lon": -155.4419559710322, "alt_km": 642.2319765902312, "timestamp": "2025-12-22T14:45:57.042338+00:00", "meta": {"OBJECT_NAME": "ALSAT 1B", "OBJECT_ID": "2016-059C", "EPOCH": "2025-12-22T06:05:31.676640", "MEAN_MOTION": 14.72083002, "ECCENTRICITY": 0.00108003, "INCLINATION": 97.7805, "RA_OF_ASC_NODE": 7.6329, "ARG_OF_PERICENTER": 76.726, "MEAN_ANOMALY": 283.5152, "EPHEMERIS_TYPE": 0, "CLASSIFICATION_TYPE": "U", "NORAD_CAT_ID": 41785, "ELEMENT_SET_NO": 999, "REV_AT_EPOCH": 49454, "BSTAR": -1.237436e-06, "MEAN_MOTION_DOT": -5.5e-07, "MEAN_MOTION_DDOT": 0}, "tle": {"line1": "1 41785U 16059C   25356.25383885 -.00000055  00000+0 -12374-5 0  9992", "line2": "2 41785  97.7805   7.6329 0010800  76.7260 283.5152 14.72083002494546"}}, "geometry": {"type": "Point", "coordinates": [-155.4419559710322, 64.39770176508723]}}, {"type": "Feature", "properties": {"norad_id": 41787, "name": "PATHFINDER 1", "group": "resource", "lat": 23.8053761079152, "lon": -4.542476586360019, "alt_km": 650.3465726236609, "timestamp": "2025-12-22T14:45:57.042349+00:00", "meta": {"OBJECT_NAME": "PATHFINDER 1", "OBJECT_ID": "2016-059E", "EPOCH": "2025-12-22T06:28:26.824224", "MEAN_MOTION": 14.67337318, "ECCENTRICITY": 0.00297504, "INCLINATION": 97.8136, "RA_OF_ASC_NODE": 358.6011, "ARG_OF_PERICENTER": 52.167, "MEAN_ANOMALY": 308.2221, "EPHEMERIS_TYPE": 0, "CLASSIFICATION_TYPE": "U", "NORAD_CAT_ID": 41787, "ELEMENT_SET_NO": 999, "REV_AT_EPOCH": 49376, "BSTAR": 0.00014297781, "MEAN_MOTION_DOT": 7.66e-06, "MEAN_MOTION_DDOT": 0}, "tle": {"line1": "1 41787U 16059E   25356.26975491  .00000766  00000+0  14298-3 0  9997", "line2": "2 41787  97.8136 358.6011 0029750  52.1670 308.2221 14.67337318493761"}}, "geometry": {"type": "Point", "coordinates": [-4.542476586360019, 23.8053761079152]}}, {"type": "Feature", "properties": {"norad_id": 41790, "name": "SCATSAT 1", "group": "resource", "lat": 67.97819665068185, "lon": 32.67057003436845, "alt_km": 590.742106289118, "timestamp": "2025-12-22T14:45:57.042360+00:00", "meta": {"OBJECT_NAME": "SCATSAT 1", "OBJECT_ID": "2016-059H", "EPOCH": "2025-12-21T17:20:44.942496", "MEAN_MOTION": 14.7896339, "ECCENTRICITY": 0.00564715, "INCLINATION": 98.145, "RA_OF_ASC_NODE": 52.5048, "ARG_OF_PERICENTER": 99.6908, "MEAN_ANOMALY": 261.0688, "EPHEMERIS_TYPE": 0, "CLASSIFICATION_TYPE": "U", "NORAD_CAT_ID": 41790, "ELEMENT_SET_NO": 999, "REV_AT_EPOCH": 7535, "BSTAR": 0.00015688521, "MEAN_MOTION_DOT": 1.132e-05, "MEAN_MOTION_DDOT": 0}, "tle": {"line1": "1 41790U 16059H   25355.72274239  .00001132  00000+0  15689-3 0  9996", "line2": "2 41790  98.1450  52.5048 0056471  99.6908 261.0688 14.78963390 75359"}}, "geometry": {"type": "Point", "coordinates": [32.67057003436845, 67.97819665068185]}}, {"type": "Feature", "properties": {"norad_id": 41875, "name": "GOKTURK 1A", "group": "resource", "lat": -58.686226076871435, "lon": -97.5375573408751, "alt_km": 691.992524055031, "timestamp": "2025-12-22T14:45:57.042370+00:00", "meta": {"OBJECT_NAME": "GOKTURK 1A", "OBJECT_ID": "2016-073A", "EPOCH": "2025-12-22T06:49:47.234208", "MEAN_MOTION": 14.6278958, "ECCENTRICITY": 0.00012966, "INCLINATION": 98.1433, "RA_OF_ASC_NODE": 248.5226, "ARG_OF_PERICENTER": 81.2999, "MEAN_ANOMALY": 278.835, "EPHEMERIS_TYPE": 0, "CLASSIFICATION_TYPE": "U", "NORAD_CAT_ID": 41875, "ELEMENT_SET_NO": 999, "REV_AT_EPOCH": 48296, "BSTAR": 9.4741604e-05, "MEAN_MOTION_DOT": 4.36e-06, "MEAN_MOTION_DDOT": 0}, "tle": {"line1": "1 41875U 16073A   25356.28457447  .00000436  00000+0  94742-4 0  9996", "line2": "2 41875  98.1433 248.5226 0001296  81.2999 278.8350 14.62789580482962"}}, "geometry": {"type": "Point", "coordinates": [-97.5375573408751, -58.686226076871435]}}, {"type": "Feature", "properties": {"norad_id": 41877, "name": "RESOURCESAT-2A", "group": "resource", "lat": -32.00579208689426, "lon": 71.9535868904436, "alt_km": 826.4633137230803, "timestamp": "2025-12-22T14:45:57.042380+00:00", "meta": {"OBJECT_NAME": "RESOURCESAT-2A", "OBJECT_ID": "2016-074A", "EPOCH": "2025-12-22T06:28:19.836192", "MEAN_MOTION": 14.21602801, "ECCENTRICITY": 0.00014894, "INCLINATION": 98.775, "RA_OF_ASC_NODE": 66.0702, "ARG_OF_PERICENTER": 210.6549, "MEAN_ANOMALY": 149.4541, "EPHEMERIS_TYPE": 0, "CLASSIFICATION_TYPE": "U", "NORAD_CAT_ID": 41877, "ELEMENT_SET_NO": 999, "REV_AT_EPOCH": 46916, "BSTAR": 3.3653705e-05, "MEAN_MOTION_DOT": 2.9e-07, "MEAN_MOTION_DDOT": 0}, "tle": {"line1": "1 41877U 16074A   25356.26967403  .00000029  00000+0  33654-4 0  9998", "line2": "2 41877  98.7750  66.0702 0001489 210.6549 149.4541 14.21602801469164"}}, "geometry": {"type": "Point", "coordinates": [71.9535868904436, -32.00579208689426]}}, {"type": "Feature", "properties": {"norad_id": 41948, "name": "CARTOSAT-2D", "group": "resource", "lat": -21.591125105790017, "lon": -129.00049109032582, "alt_km": 511.839400019142, "timestamp": "2025-12-22T14:45:57.042391+00:00", "meta": {"OBJECT_NAME": "CARTOSAT-2D", "OBJECT_ID": "2017-008A", "EPOCH": "2025-12-22T07:33:31.837248", "MEAN_MOTION": 15.19344407, "ECCENTRICITY": 0.00053413, "INCLINATION": 97.4375, "RA_OF_ASC_NODE": 53.6672, "ARG_OF_PERICENTER": 134.7698, "MEAN_ANOMALY": 225.3972, "EPHEMERIS_TYPE": 0, "CLASSIFICATION_TYPE": "U", "NORAD_CAT_ID": 41948, "ELEMENT_SET_NO": 999, "REV_AT_EPOCH": 49072, "BSTAR": 0.00020200941, "MEAN_MOTION_DOT": 4.202e-05, "MEAN_MOTION_DDOT": 0}, "tle": {"line1": "1 41948U 17008A   25356.31495182  .00004202  00000+0  20201-3 0  9991", "line2": "2 41948  97.4375  53.6672 0005341 134.7698 225.3972 15.19344407490723"}}, "geometry": {"type": "Point", "coordinates": [-129.00049109032582, -21.591125105790017]}}, {"type": "Feature", "properties": {"norad_id": 42063, "name": "SENTINEL-2B", "group": "resource", "lat": -79.08776219624238, "lon": -162.54633973067632, "alt_km": 797.1692561874406, "timestamp": "2025-12-22T14:45:57.042401+00:00", "meta": {"OBJECT_NAME": "SENTINEL-2B", "OBJECT_ID": "2017-013A", "EPOCH": "2025-12-22T06:49:33.820608", "MEAN_MOTION": 14.30813446, "ECCENTRICITY": 0.0001172, "INCLINATION": 98.571, "RA_OF_ASC_NODE": 68.5966, "ARG_OF_PERICENTER": 92.8508, "MEAN_ANOMALY": 267.2809, "EPHEMERIS_TYPE": 0, "CLASSIFICATION_TYPE": "U", "NORAD_CAT_ID": 42063, "ELEMENT_SET_NO": 999, "REV_AT_EPOCH": 45934, "BSTAR": -2.5297407e-05, "MEAN_MOTION_DOT": -1.1e-06, "MEAN_MOTION_DDOT": 0}, "tle": {"line1": "1 42063U 17013A   25356.28441922 -.00000110  00000+0 -25297-4 0  9992", "line2": "2 42063  98.5710  68.5966 0001172  92.8508 267.2809 14.30813446459343"}}, "geometry": {"type": "Point", "coordinates": [-162.54633973067632, -79.08776219624238]}}, {"type": "Feature", "properties": {"norad_id": 42767, "name": "CARTOSAT-2E", "group": "resource", "lat": 68.42063412136145, "lon": -106.59473282621421, "alt_km": 501.0825534946589, "timestamp": "2025-12-22T14:45:57.042411+00:00", "meta": {"OBJECT_NAME": "CARTOSAT-2E", "OBJECT_ID": "2017-036C", "EPOCH": "2025-12-22T06:22:42.774240", "MEAN_MOTION": 15.19281488, "ECCENTRICITY": 0.00026635, "INCLINATION": 97.4542, "RA_OF_ASC_NODE": 53.7284, "ARG_OF_PERICENTER": 192.2956, "MEAN_ANOMALY": 167.8214, "EPHEMERIS_TYPE": 0, "CLASSIFICATION_TYPE": "U", "NORAD_CAT_ID": 42767, "ELEMENT_SET_NO": 999, "REV_AT_EPOCH": 47128, "BSTAR": 0.00010848123, "MEAN_MOTION_DOT": 2.22e-05, "MEAN_MOTION_DDOT": 0}, "tle": {"line1": "1 42767U 17036C   25356.26577285  .00002220  00000+0  10848-3 0  9995", "line2": "2 42767  97.4542  53.7284 0002663 192.2956 167.8214 15.19281488471287"}}, "geometry": {"type": "Point", "coordinates": [-106.59473282621421, 68.42063412136145]}}, {"type": "Feature", "properties": {"norad_id": 42920, "name": "FORMOSAT-5", "group": "resource", "lat": -74.18089675319798, "lon": -140.04208076317013, "alt_km": 723.6172592544153, "timestamp": "2025-12-22T14:45:57.042421+00:00", "meta": {"OBJECT_NAME": "FORMOSAT-5", "OBJECT_ID": "2017-049A", "EPOCH": "2025-12-22T06:57:56.364480", "MEAN_MOTION": 14.5076583, "ECCENTRICITY": 0.00098233, "INCLINATION": 98.2441, "RA_OF_ASC_NODE": 70.4172, "ARG_OF_PERICENTER": 268.9285, "MEAN_ANOMALY": 91.0784, "EPHEMERIS_TYPE": 0, "CLASSIFICATION_TYPE": "U", "NORAD_CAT_ID": 42920, "ELEMENT_SET_NO": 999, "REV_AT_EPOCH": 44102, "BSTAR": 6.2910208e-05, "MEAN_MOTION_DOT": 2.04e-06, "MEAN_MOTION_DDOT": 0}, "tle": {"line1": "1 42920U 17049A   25356.29023570  .00000204  00000+0  62910-4 0  9994", "line2": "2 42920  98.2441  70.4172 0009823 268.9285  91.0784 14.50765830441029"}}, "geometry": {"type": "Point", "coordinates": [-140.04208076317013, -74.18089675319798]}}, {"type": "Feature", "properties": {"norad_id": 42969, "name": "SENTINEL-5P", "group": "resource", "lat": -76.64453897299728, "lon": 74.49777151333194, "alt_km": 835.0073208628191, "timestamp": "2025-12-22T14:45:57.042432+00:00", "meta": {"OBJECT_NAME": "SENTINEL-5P", "OBJECT_ID": "2017-064A", "EPOCH": "2025-12-22T06:46:43.044960", "MEAN_MOTION": 14.19519783, "ECCENTRICITY": 0.00010231, "INCLINATION": 98.7799, "RA_OF_ASC_NODE": 294.7824, "ARG_OF_PERICENTER": 91.2529, "MEAN_ANOMALY": 268.8764, "EPHEMERIS_TYPE": 0, "CLASSIFICATION_TYPE": "U", "NORAD_CAT_ID": 42969, "ELEMENT_SET_NO": 999, "REV_AT_EPOCH": 42446, "BSTAR": 5.6019005e-05, "MEAN_MOTION_DOT": 7.4e-07, "MEAN_MOTION_DDOT": 0}, "tle": {"line1": "1 42969U 17064A   25356.28244265  .00000074  00000+0  56019-4 0  9997", "line2": "2 42969  98.7799 294.7824 0001023  91.2529 268.8764 14.19519783424460"}}, "geometry": {"type": "Point", "coordinates": [74.49777151333194, -76.64453897299728]}}]}